[
  {
    "OBJECT_NAME": "STARLINK-35337",
    "OBJECT_ID": "25221J",
    "EPOCH": "2025-11-11T08:00:03.000384",
    "MEAN_MOTION": 15.30113411,
    "ECCENTRICITY": 0.0002244,
    "INCLINATION": 53.158,
    "RA_OF_ASC_NODE": 278.0408,
    "ARG_OF_PERICENTER": 90.4841,
    "MEAN_ANOMALY": 257.3695,
    "EPHEMERIS_TYPE": 0,
    "CLASSIFICATION_TYPE": "U",
    "NORAD_CAT_ID": 65831,
    "ELEMENT_SET_NO": 999,
    "REV_AT_EPOCH": 597,
    "BSTAR": 0.0029485,
    "MEAN_MOTION_DOT": 0.0008777,
    "MEAN_MOTION_DDOT": 0.0,
    "TLE_LINE1": "1 65831U 25221J   25315.33336806  .00087770  00000+0  29485-2 0  9991",
    "TLE_LINE2": "2 65831  53.1580 278.0408 0002244  90.4841 257.3695 15.30113411  5972",
    "COMMENT": "Grouped by shell and plane from TLE"
  },
  {
    "OBJECT_NAME": "STARLINK-35277",
    "OBJECT_ID": "25221K",
    "EPOCH": "2025-11-11T08:00:03.000384",
    "MEAN_MOTION": 15.30143405,
    "ECCENTRICITY": 0.0001624,
    "INCLINATION": 53.1585,
    "RA_OF_ASC_NODE": 278.0756,
    "ARG_OF_PERICENTER": 90.5201,
    "MEAN_ANOMALY": 239.8248,
    "EPHEMERIS_TYPE": 0,
    "CLASSIFICATION_TYPE": "U",
    "NORAD_CAT_ID": 65832,
    "ELEMENT_SET_NO": 999,
    "REV_AT_EPOCH": 597,
    "BSTAR": 0.0024403,
    "MEAN_MOTION_DOT": 0.00072496,
    "MEAN_MOTION_DDOT": 0.0,
    "TLE_LINE1": "1 65832U 25221K   25315.33336806  .00072496  00000+0  24403-2 0  9996",
    "TLE_LINE2": "2 65832  53.1585 278.0756 0001624  90.5201 239.8248 15.30143405  5971",
    "COMMENT": "Grouped by shell and plane from TLE"
  },
  {
    "OBJECT_NAME": "STARLINK-35345",
    "OBJECT_ID": "25221L",
    "EPOCH": "2025-11-11T08:00:03.000384",
    "MEAN_MOTION": 15.30140168,
    "ECCENTRICITY": 0.0001909,
    "INCLINATION": 53.1584,
    "RA_OF_ASC_NODE": 277.958,
    "ARG_OF_PERICENTER": 80.195,
    "MEAN_ANOMALY": 308.3139,
    "EPHEMERIS_TYPE": 0,
    "CLASSIFICATION_TYPE": "U",
    "NORAD_CAT_ID": 65833,
    "ELEMENT_SET_NO": 999,
    "REV_AT_EPOCH": 607,
    "BSTAR": 0.0025464999999999997,
    "MEAN_MOTION_DOT": 0.00075691,
    "MEAN_MOTION_DDOT": 0.0,
    "TLE_LINE1": "1 65833U 25221L   25315.33336806  .00075691  00000+0  25465-2 0  9996",
    "TLE_LINE2": "2 65833  53.1584 277.9580 0001909  80.1950 308.3139 15.30140168  6072",
    "COMMENT": "Grouped by shell and plane from TLE"
  },
  {
    "OBJECT_NAME": "STARLINK-35320",
    "OBJECT_ID": "25221M",
    "EPOCH": "2025-11-11T04:08:14.765568",
    "MEAN_MOTION": 15.30178362,
    "ECCENTRICITY": 0.0002601,
    "INCLINATION": 53.1634,
    "RA_OF_ASC_NODE": 279.1464,
    "ARG_OF_PERICENTER": 85.3798,
    "MEAN_ANOMALY": 274.75,
    "EPHEMERIS_TYPE": 0,
    "CLASSIFICATION_TYPE": "U",
    "NORAD_CAT_ID": 65834,
    "ELEMENT_SET_NO": 999,
    "REV_AT_EPOCH": 658,
    "BSTAR": 0.0011525,
    "MEAN_MOTION_DOT": 0.0003391,
    "MEAN_MOTION_DDOT": 0.0,
    "TLE_LINE1": "1 65834U 25221M   25315.17239312  .00033910  00000+0  11525-2 0  9993",
    "TLE_LINE2": "2 65834  53.1634 279.1464 0002601  85.3798 274.7500 15.30178362  6582",
    "COMMENT": "Grouped by shell and plane from TLE"
  },
  {
    "OBJECT_NAME": "STARLINK-35349",
    "OBJECT_ID": "25221N",
    "EPOCH": "2025-11-11T04:17:20.059296",
    "MEAN_MOTION": 15.30209003,
    "ECCENTRICITY": 0.0001337,
    "INCLINATION": 53.1619,
    "RA_OF_ASC_NODE": 279.1827,
    "ARG_OF_PERICENTER": 120.3367,
    "MEAN_ANOMALY": 239.7766,
    "EPHEMERIS_TYPE": 0,
    "CLASSIFICATION_TYPE": "U",
    "NORAD_CAT_ID": 65835,
    "ELEMENT_SET_NO": 999,
    "REV_AT_EPOCH": 658,
    "BSTAR": 0.0017992,
    "MEAN_MOTION_DOT": 0.00053325,
    "MEAN_MOTION_DDOT": 0.0,
    "TLE_LINE1": "1 65835U 25221N   25315.17870439  .00053325  00000+0  17992-2 0  9991",
    "TLE_LINE2": "2 65835  53.1619 279.1827 0001337 120.3367 239.7766 15.30209003  6588",
    "COMMENT": "Grouped by shell and plane from TLE"
  },
  {
    "OBJECT_NAME": "STARLINK-35356",
    "OBJECT_ID": "25221P",
    "EPOCH": "2025-11-11T08:00:03.000384",
    "MEAN_MOTION": 15.30119139,
    "ECCENTRICITY": 0.0001691,
    "INCLINATION": 53.1589,
    "RA_OF_ASC_NODE": 277.9211,
    "ARG_OF_PERICENTER": 96.002,
    "MEAN_ANOMALY": 309.993,
    "EPHEMERIS_TYPE": 0,
    "CLASSIFICATION_TYPE": "U",
    "NORAD_CAT_ID": 65836,
    "ELEMENT_SET_NO": 999,
    "REV_AT_EPOCH": 602,
    "BSTAR": 0.0034451,
    "MEAN_MOTION_DOT": 0.00102837,
    "MEAN_MOTION_DDOT": 0.0,
    "TLE_LINE1": "1 65836U 25221P   25315.33336806  .00102837  00000+0  34451-2 0  9997",
    "TLE_LINE2": "2 65836  53.1589 277.9211 0001691  96.0020 309.9930 15.30119139  6028",
    "COMMENT": "Grouped by shell and plane from TLE"
  },
  {
    "OBJECT_NAME": "STARLINK-35314",
    "OBJECT_ID": "25221Q",
    "EPOCH": "2025-11-11T06:55:03.117792",
    "MEAN_MOTION": 15.30200892,
    "ECCENTRICITY": 0.0001317,
    "INCLINATION": 53.162,
    "RA_OF_ASC_NODE": 278.4425,
    "ARG_OF_PERICENTER": 94.9637,
    "MEAN_ANOMALY": 265.1514,
    "EPHEMERIS_TYPE": 0,
    "CLASSIFICATION_TYPE": "U",
    "NORAD_CAT_ID": 65837,
    "ELEMENT_SET_NO": 999,
    "REV_AT_EPOCH": 660,
    "BSTAR": 0.0010958,
    "MEAN_MOTION_DOT": 0.00032236,
    "MEAN_MOTION_DDOT": 0.0,
    "TLE_LINE1": "1 65837U 25221Q   25315.28823053  .00032236  00000+0  10958-2 0  9998",
    "TLE_LINE2": "2 65837  53.1620 278.4425 0001317  94.9637 265.1514 15.30200892  6606",
    "COMMENT": "Grouped by shell and plane from TLE"
  },
  {
    "OBJECT_NAME": "STARLINK-35324",
    "OBJECT_ID": "25221R",
    "EPOCH": "2025-11-11T04:21:53.892864",
    "MEAN_MOTION": 15.30209705,
    "ECCENTRICITY": 0.000174,
    "INCLINATION": 53.1612,
    "RA_OF_ASC_NODE": 279.202,
    "ARG_OF_PERICENTER": 89.8527,
    "MEAN_ANOMALY": 270.2674,
    "EPHEMERIS_TYPE": 0,
    "CLASSIFICATION_TYPE": "U",
    "NORAD_CAT_ID": 65838,
    "ELEMENT_SET_NO": 999,
    "REV_AT_EPOCH": 658,
    "BSTAR": 0.00098073,
    "MEAN_MOTION_DOT": 0.00028809,
    "MEAN_MOTION_DDOT": 0.0,
    "TLE_LINE1": "1 65838U 25221R   25315.18187376  .00028809  00000+0  98073-3 0  9995",
    "TLE_LINE2": "2 65838  53.1612 279.2020 0001740  89.8527 270.2674 15.30209705  6582",
    "COMMENT": "Grouped by shell and plane from TLE"
  },
  {
    "OBJECT_NAME": "STARLINK-35102",
    "OBJECT_ID": "25221S",
    "EPOCH": "2025-11-11T05:16:26.343840",
    "MEAN_MOTION": 15.30212905,
    "ECCENTRICITY": 0.0001222,
    "INCLINATION": 53.1607,
    "RA_OF_ASC_NODE": 278.7283,
    "ARG_OF_PERICENTER": 90.0348,
    "MEAN_ANOMALY": 270.0793,
    "EPHEMERIS_TYPE": 0,
    "CLASSIFICATION_TYPE": "U",
    "NORAD_CAT_ID": 65839,
    "ELEMENT_SET_NO": 999,
    "REV_AT_EPOCH": 659,
    "BSTAR": 0.0016768,
    "MEAN_MOTION_DOT": 0.00049656,
    "MEAN_MOTION_DDOT": 0.0,
    "TLE_LINE1": "1 65839U 25221S   25315.21974935  .00049656  00000+0  16768-2 0  9998",
    "TLE_LINE2": "2 65839  53.1607 278.7283 0001222  90.0348 270.0793 15.30212905  6599",
    "COMMENT": "Grouped by shell and plane from TLE"
  },
  {
    "OBJECT_NAME": "STARLINK-35364",
    "OBJECT_ID": "25221T",
    "EPOCH": "2025-11-11T06:45:56.013120",
    "MEAN_MOTION": 15.30207478,
    "ECCENTRICITY": 0.0001401,
    "INCLINATION": 53.1606,
    "RA_OF_ASC_NODE": 278.4034,
    "ARG_OF_PERICENTER": 107.9567,
    "MEAN_ANOMALY": 252.1587,
    "EPHEMERIS_TYPE": 0,
    "CLASSIFICATION_TYPE": "U",
    "NORAD_CAT_ID": 65840,
    "ELEMENT_SET_NO": 999,
    "REV_AT_EPOCH": 660,
    "BSTAR": 0.00066901,
    "MEAN_MOTION_DOT": 0.00019512,
    "MEAN_MOTION_DDOT": 0.0,
    "TLE_LINE1": "1 65840U 25221T   25315.28189830  .00019512  00000+0  66901-3 0  9992",
    "TLE_LINE2": "2 65840  53.1606 278.4034 0001401 107.9567 252.1587 15.30207478  6604",
    "COMMENT": "Grouped by shell and plane from TLE"
  },
  {
    "OBJECT_NAME": "STARLINK-35238",
    "OBJECT_ID": "25221U",
    "EPOCH": "2025-11-11T06:42:22.237920",
    "MEAN_MOTION": 15.49346095,
    "ECCENTRICITY": 0.0002195,
    "INCLINATION": 53.1582,
    "RA_OF_ASC_NODE": 277.6712,
    "ARG_OF_PERICENTER": 47.4868,
    "MEAN_ANOMALY": 312.6326,
    "EPHEMERIS_TYPE": 0,
    "CLASSIFICATION_TYPE": "U",
    "NORAD_CAT_ID": 65841,
    "ELEMENT_SET_NO": 999,
    "REV_AT_EPOCH": 661,
    "BSTAR": 0.0017204,
    "MEAN_MOTION_DOT": 0.00096552,
    "MEAN_MOTION_DDOT": 0.0,
    "TLE_LINE1": "1 65841U 25221U   25315.27942405  .00096552  00000+0  17204-2 0  9997",
    "TLE_LINE2": "2 65841  53.1582 277.6712 0002195  47.4868 312.6326 15.49346095  6618",
    "COMMENT": "Grouped by shell and plane from TLE"
  },
  {
    "OBJECT_NAME": "STARLINK-35298",
    "OBJECT_ID": "25221V",
    "EPOCH": "2025-11-11T06:41:22.481088",
    "MEAN_MOTION": 15.30209583,
    "ECCENTRICITY": 9.22e-05,
    "INCLINATION": 53.1603,
    "RA_OF_ASC_NODE": 278.3828,
    "ARG_OF_PERICENTER": 128.1717,
    "MEAN_ANOMALY": 231.9367,
    "EPHEMERIS_TYPE": 0,
    "CLASSIFICATION_TYPE": "U",
    "NORAD_CAT_ID": 65842,
    "ELEMENT_SET_NO": 999,
    "REV_AT_EPOCH": 660,
    "BSTAR": 0.0009785500000000001,
    "MEAN_MOTION_DOT": 0.00028743,
    "MEAN_MOTION_DDOT": 0.0,
    "TLE_LINE1": "1 65842U 25221V   25315.27873242  .00028743  00000+0  97855-3 0  9998",
    "TLE_LINE2": "2 65842  53.1603 278.3828 0000922 128.1717 231.9367 15.30209583  6602",
    "COMMENT": "Grouped by shell and plane from TLE"
  },
  {
    "OBJECT_NAME": "STARLINK-35301",
    "OBJECT_ID": "25221W",
    "EPOCH": "2025-11-11T08:00:03.000384",
    "MEAN_MOTION": 15.3014079,
    "ECCENTRICITY": 0.0001381,
    "INCLINATION": 53.1584,
    "RA_OF_ASC_NODE": 278.025,
    "ARG_OF_PERICENTER": 88.7497,
    "MEAN_ANOMALY": 264.8815,
    "EPHEMERIS_TYPE": 0,
    "CLASSIFICATION_TYPE": "U",
    "NORAD_CAT_ID": 65843,
    "ELEMENT_SET_NO": 999,
    "REV_AT_EPOCH": 602,
    "BSTAR": 0.0024631,
    "MEAN_MOTION_DOT": 0.00073178,
    "MEAN_MOTION_DDOT": 0.0,
    "TLE_LINE1": "1 65843U 25221W   25315.33336806  .00073178  00000+0  24631-2 0  9999",
    "TLE_LINE2": "2 65843  53.1584 278.0250 0001381  88.7497 264.8815 15.30140790  6026",
    "COMMENT": "Grouped by shell and plane from TLE"
  }
]